{
  "type": "FeatureCollection",
  "features": [
    {
      "type": "Feature",
      "geometry": {
        "type": "Polygon",
        "coordinates": [
          [
            [
              1.943496402047486,
              41.263077568379025
            ],
            [
              1.9494643849362214,
              41.2631321834098
            ],
            [
              1.9493922008737745,
              41.267635336070924
            ],
            [
              1.9434238081003585,
              41.267580712438246
            ],
            [
              1.943496402047486,
              41.263077568379025
            ]
          ]
        ]
      },
      "properties": {
        "id": "r0_c1",
        "count": 4,
        "top_category": "Comercio",
        "categories": {
          "Comercio": 2,
          "Restauración": 2
        },
        "cell_size_m": 500,
        "analytic_crs": "EPSG:25831",
        "category_breakdown": [
          {
            "category": "Comercio",
            "value": 2
          },
          {
            "category": "Restauración",
            "value": 2
          }
        ],
        "density_label": "4 registros OSM",
        "rank": 1
      }
    },
    {
      "type": "Feature",
      "geometry": {
        "type": "Polygon",
        "coordinates": [
          [
            [
              1.9494643849362214,
              41.2631321834098
            ],
            [
              1.9554323842067847,
              41.26318648914932
            ],
            [
              1.9553606100332974,
              41.26768965036365
            ],
            [
              1.9493922008737745,
              41.267635336070924
            ],
            [
              1.9494643849362214,
              41.2631321834098
            ]
          ]
        ]
      },
      "properties": {
        "id": "r0_c2",
        "count": 6,
        "top_category": "Restauración",
        "categories": {
          "Restauración": 4,
          "Salud": 1,
          "Automoción y movilidad": 1
        },
        "cell_size_m": 500,
        "analytic_crs": "EPSG:25831",
        "category_breakdown": [
          {
            "category": "Restauración",
            "value": 4
          },
          {
            "category": "Salud",
            "value": 1
          },
          {
            "category": "Automoción y movilidad",
            "value": 1
          }
        ],
        "density_label": "6 registros OSM",
        "rank": 1
      }
    },
    {
      "type": "Feature",
      "geometry": {
        "type": "Polygon",
        "coordinates": [
          [
            [
              1.9554323842067847,
              41.26318648914932
            ],
            [
              1.961400399766209,
              41.26324048559517
            ],
            [
              1.9613290354858886,
              41.267743655314014
            ],
            [
              1.9553606100332974,
              41.26768965036365
            ],
            [
              1.9554323842067847,
              41.26318648914932
            ]
          ]
        ]
      },
      "properties": {
        "id": "r0_c3",
        "count": 25,
        "top_category": "Restauración",
        "categories": {
          "Comercio": 6,
          "Restauración": 16,
          "Alojamiento": 2,
          "Oficinas": 1
        },
        "cell_size_m": 500,
        "analytic_crs": "EPSG:25831",
        "category_breakdown": [
          {
            "category": "Restauración",
            "value": 16
          },
          {
            "category": "Comercio",
            "value": 6
          },
          {
            "category": "Alojamiento",
            "value": 2
          },
          {
            "category": "Oficinas",
            "value": 1
          }
        ],
        "density_label": "25 registros OSM",
        "rank": 2
      }
    },
    {
      "type": "Feature",
      "geometry": {
        "type": "Polygon",
        "coordinates": [
          [
            [
              1.961400399766209,
              41.26324048559517
            ],
            [
              1.9673684315215,
              41.263294172744935
            ],
            [
              1.967297477138581,
              41.26779735091959
            ],
            [
              1.9613290354858886,
              41.267743655314014
            ],
            [
              1.961400399766209,
              41.26324048559517
            ]
          ]
        ]
      },
      "properties": {
        "id": "r0_c4",
        "count": 14,
        "top_category": "Restauración",
        "categories": {
          "Comercio": 3,
          "Restauración": 5,
          "Alojamiento": 2,
          "Servicios financieros": 1,
          "Salud": 1,
          "Automoción y movilidad": 1,
          "Ocio": 1
        },
        "cell_size_m": 500,
        "analytic_crs": "EPSG:25831",
        "category_breakdown": [
          {
            "category": "Restauración",
            "value": 5
          },
          {
            "category": "Comercio",
            "value": 3
          },
          {
            "category": "Alojamiento",
            "value": 2
          },
          {
            "category": "Servicios financieros",
            "value": 1
          },
          {
            "category": "Salud",
            "value": 1
          },
          {
            "category": "Automoción y movilidad",
            "value": 1
          },
          {
            "category": "Ocio",
            "value": 1
          }
        ],
        "density_label": "14 registros OSM",
        "rank": 2
      }
    },
    {
      "type": "Feature",
      "geometry": {
        "type": "Polygon",
        "coordinates": [
          [
            [
              1.9673684315215,
              41.263294172744935
            ],
            [
              1.9733364793796655,
              41.26334755059621
            ],
            [
              1.9732659348983155,
              41.26785073717797
            ],
            [
              1.967297477138581,
              41.26779735091959
            ],
            [
              1.9673684315215,
              41.263294172744935
            ]
          ]
        ]
      },
      "properties": {
        "id": "r0_c5",
        "count": 54,
        "top_category": "Restauración",
        "categories": {
          "Comercio": 12,
          "Restauración": 37,
          "Alojamiento": 2,
          "Servicios financieros": 3
        },
        "cell_size_m": 500,
        "analytic_crs": "EPSG:25831",
        "category_breakdown": [
          {
            "category": "Restauración",
            "value": 37
          },
          {
            "category": "Comercio",
            "value": 12
          },
          {
            "category": "Servicios financieros",
            "value": 3
          },
          {
            "category": "Alojamiento",
            "value": 2
          }
        ],
        "density_label": "54 registros OSM",
        "rank": 5
      }
    },
    {
      "type": "Feature",
      "geometry": {
        "type": "Polygon",
        "coordinates": [
          [
            [
              1.9733364793796655,
              41.26334755059621
            ],
            [
              1.9793045432477128,
              41.26340061914664
            ],
            [
              1.979234408672109,
              41.26790381408679
            ],
            [
              1.9732659348983155,
              41.26785073717797
            ],
            [
              1.9733364793796655,
              41.26334755059621
            ]
          ]
        ]
      },
      "properties": {
        "id": "r0_c6",
        "count": 14,
        "top_category": "Restauración",
        "categories": {
          "Restauración": 10,
          "Alojamiento": 3,
          "Oficinas": 1
        },
        "cell_size_m": 500,
        "analytic_crs": "EPSG:25831",
        "category_breakdown": [
          {
            "category": "Restauración",
            "value": 10
          },
          {
            "category": "Alojamiento",
            "value": 3
          },
          {
            "category": "Oficinas",
            "value": 1
          }
        ],
        "density_label": "14 registros OSM",
        "rank": 2
      }
    },
    {
      "type": "Feature",
      "geometry": {
        "type": "Polygon",
        "coordinates": [
          [
            [
              1.9793045432477128,
              41.26340061914664
            ],
            [
              1.9852726230326687,
              41.263453378393805
            ],
            [
              1.985202898366934,
              41.267956581643666
            ],
            [
              1.979234408672109,
              41.26790381408679
            ],
            [
              1.9793045432477128,
              41.26340061914664
            ]
          ]
        ]
      },
      "properties": {
        "id": "r0_c7",
        "count": 8,
        "top_category": "Restauración",
        "categories": {
          "Restauración": 5,
          "Alojamiento": 2,
          "Oficinas": 1
        },
        "cell_size_m": 500,
        "analytic_crs": "EPSG:25831",
        "category_breakdown": [
          {
            "category": "Restauración",
            "value": 5
          },
          {
            "category": "Alojamiento",
            "value": 2
          },
          {
            "category": "Oficinas",
            "value": 1
          }
        ],
        "density_label": "8 registros OSM",
        "rank": 1
      }
    },
    {
      "type": "Feature",
      "geometry": {
        "type": "Polygon",
        "coordinates": [
          [
            [
              1.9852726230326687,
              41.263453378393805
            ],
            [
              1.991240718641524,
              41.26350582833539
            ],
            [
              1.9911714038897752,
              41.26800903984625
            ],
            [
              1.985202898366934,
              41.267956581643666
            ],
            [
              1.9852726230326687,
              41.263453378393805
            ]
          ]
        ]
      },
      "properties": {
        "id": "r0_c8",
        "count": 5,
        "top_category": "Restauración",
        "categories": {
          "Restauración": 5
        },
        "cell_size_m": 500,
        "analytic_crs": "EPSG:25831",
        "category_breakdown": [
          {
            "category": "Restauración",
            "value": 5
          }
        ],
        "density_label": "5 registros OSM",
        "rank": 1
      }
    },
    {
      "type": "Feature",
      "geometry": {
        "type": "Polygon",
        "coordinates": [
          [
            [
              1.991240718641524,
              41.26350582833539
            ],
            [
              1.997208829981293,
              41.263557968969025
            ],
            [
              1.9971399251476176,
              41.26806118869219
            ],
            [
              1.9911714038897752,
              41.26800903984625
            ],
            [
              1.991240718641524,
              41.26350582833539
            ]
          ]
        ]
      },
      "properties": {
        "id": "r0_c9",
        "count": 4,
        "top_category": "Restauración",
        "categories": {
          "Restauración": 3,
          "Alojamiento": 1
        },
        "cell_size_m": 500,
        "analytic_crs": "EPSG:25831",
        "category_breakdown": [
          {
            "category": "Restauración",
            "value": 3
          },
          {
            "category": "Alojamiento",
            "value": 1
          }
        ],
        "density_label": "4 registros OSM",
        "rank": 1
      }
    },
    {
      "type": "Feature",
      "geometry": {
        "type": "Polygon",
        "coordinates": [
          [
            [
              1.997208829981293,
              41.263557968969025
            ],
            [
              2.0031769569589644,
              41.263609800292414
            ],
            [
              2.003108462047443,
              41.26811302817916
            ],
            [
              1.9971399251476176,
              41.26806118869219
            ],
            [
              1.997208829981293,
              41.263557968969025
            ]
          ]
        ]
      },
      "properties": {
        "id": "r0_c10",
        "count": 2,
        "top_category": "Restauración",
        "categories": {
          "Restauración": 2
        },
        "cell_size_m": 500,
        "analytic_crs": "EPSG:25831",
        "category_breakdown": [
          {
            "category": "Restauración",
            "value": 2
          }
        ],
        "density_label": "2 registros OSM",
        "rank": 1
      }
    },
    {
      "type": "Feature",
      "geometry": {
        "type": "Polygon",
        "coordinates": [
          [
            [
              1.9374554318060344,
              41.267525779468066
            ],
            [
              1.9434238081003585,
              41.267580712438246
            ],
            [
              1.9433511976741196,
              41.272083852858344
            ],
            [
              1.9373824114063858,
              41.272028911236376
            ],
            [
              1.9374554318060344,
              41.267525779468066
            ]
          ]
        ]
      },
      "properties": {
        "id": "r1_c0",
        "count": 0,
        "top_category": null,
        "categories": {},
        "cell_size_m": 500,
        "analytic_crs": "EPSG:25831",
        "category_breakdown": [],
        "density_label": "Sin registros OSM",
        "rank": 0
      }
    },
    {
      "type": "Feature",
      "geometry": {
        "type": "Polygon",
        "coordinates": [
          [
            [
              1.9434238081003585,
              41.267580712438246
            ],
            [
              1.9493922008737745,
              41.267635336070924
            ],
            [
              1.9493200004252373,
              41.272138485094096
            ],
            [
              1.9433511976741196,
              41.272083852858344
            ],
            [
              1.9434238081003585,
              41.267580712438246
            ]
          ]
        ]
      },
      "properties": {
        "id": "r1_c1",
        "count": 2,
        "top_category": "Comercio",
        "categories": {
          "Comercio": 1,
          "Restauración": 1
        },
        "cell_size_m": 500,
        "analytic_crs": "EPSG:25831",
        "category_breakdown": [
          {
            "category": "Comercio",
            "value": 1
          },
          {
            "category": "Restauración",
            "value": 1
          }
        ],
        "density_label": "2 registros OSM",
        "rank": 1
      }
    },
    {
      "type": "Feature",
      "geometry": {
        "type": "Polygon",
        "coordinates": [
          [
            [
              1.9493922008737745,
              41.267635336070924
            ],
            [
              1.9553606100332974,
              41.26768965036365
            ],
            [
              1.9552888195667204,
              41.27219280794121
            ],
            [
              1.9493200004252373,
              41.272138485094096
            ],
            [
              1.9493922008737745,
              41.267635336070924
            ]
          ]
        ]
      },
      "properties": {
        "id": "r1_c2",
        "count": 2,
        "top_category": "Restauración",
        "categories": {
          "Restauración": 1,
          "Educación": 1
        },
        "cell_size_m": 500,
        "analytic_crs": "EPSG:25831",
        "category_breakdown": [
          {
            "category": "Restauración",
            "value": 1
          },
          {
            "category": "Educación",
            "value": 1
          }
        ],
        "density_label": "2 registros OSM",
        "rank": 1
      }
    },
    {
      "type": "Feature",
      "geometry": {
        "type": "Polygon",
        "coordinates": [
          [
            [
              1.9553606100332974,
              41.26768965036365
            ],
            [
              1.9613290354858886,
              41.267743655314014
            ],
            [
              1.9612576550055068,
              41.27224682139721
            ],
            [
              1.9552888195667204,
              41.27219280794121
            ],
            [
              1.9553606100332974,
              41.26768965036365
            ]
          ]
        ]
      },
      "properties": {
        "id": "r1_c3",
        "count": 0,
        "top_category": null,
        "categories": {},
        "cell_size_m": 500,
        "analytic_crs": "EPSG:25831",
        "category_breakdown": [],
        "density_label": "Sin registros OSM",
        "rank": 0
      }
    },
    {
      "type": "Feature",
      "geometry": {
        "type": "Polygon",
        "coordinates": [
          [
            [
              1.9613290354858886,
              41.267743655314014
            ],
            [
              1.967297477138581,
              41.26779735091959
            ],
            [
              1.9672265066485919,
              41.27230052545975
            ],
            [
              1.9612576550055068,
              41.27224682139721
            ],
            [
              1.9613290354858886,
              41.267743655314014
            ]
          ]
        ]
      },
      "properties": {
        "id": "r1_c4",
        "count": 4,
        "top_category": "Educación",
        "categories": {
          "Restauración": 1,
          "Alojamiento": 1,
          "Educación": 2
        },
        "cell_size_m": 500,
        "analytic_crs": "EPSG:25831",
        "category_breakdown": [
          {
            "category": "Educación",
            "value": 2
          },
          {
            "category": "Restauración",
            "value": 1
          },
          {
            "category": "Alojamiento",
            "value": 1
          }
        ],
        "density_label": "4 registros OSM",
        "rank": 1
      }
    },
    {
      "type": "Feature",
      "geometry": {
        "type": "Polygon",
        "coordinates": [
          [
            [
              1.967297477138581,
              41.26779735091959
            ],
            [
              1.9732659348983155,
              41.26785073717797
            ],
            [
              1.973195374402922,
              41.272353920126385
            ],
            [
              1.9672265066485919,
              41.27230052545975
            ],
            [
              1.967297477138581,
              41.26779735091959
            ]
          ]
        ]
      },
      "properties": {
        "id": "r1_c5",
        "count": 1,
        "top_category": "Salud",
        "categories": {
          "Salud": 1
        },
        "cell_size_m": 500,
        "analytic_crs": "EPSG:25831",
        "category_breakdown": [
          {
            "category": "Salud",
            "value": 1
          }
        ],
        "density_label": "1 registro OSM",
        "rank": 1
      }
    },
    {
      "type": "Feature",
      "geometry": {
        "type": "Polygon",
        "coordinates": [
          [
            [
              1.9732659348983155,
              41.26785073717797
            ],
            [
              1.979234408672109,
              41.26790381408679
            ],
            [
              1.9791642581754652,
              41.27240700539475
            ],
            [
              1.973195374402922,
              41.272353920126385
            ],
            [
              1.9732659348983155,
              41.26785073717797
            ]
          ]
        ]
      },
      "properties": {
        "id": "r1_c6",
        "count": 4,
        "top_category": "Alojamiento",
        "categories": {
          "Alojamiento": 2,
          "Salud": 1,
          "Educación": 1
        },
        "cell_size_m": 500,
        "analytic_crs": "EPSG:25831",
        "category_breakdown": [
          {
            "category": "Alojamiento",
            "value": 2
          },
          {
            "category": "Salud",
            "value": 1
          },
          {
            "category": "Educación",
            "value": 1
          }
        ],
        "density_label": "4 registros OSM",
        "rank": 1
      }
    },
    {
      "type": "Feature",
      "geometry": {
        "type": "Polygon",
        "coordinates": [
          [
            [
              1.979234408672109,
              41.26790381408679
            ],
            [
              1.985202898366934,
              41.267956581643666
            ],
            [
              1.9851331578731857,
              41.27245978126245
            ],
            [
              1.9791642581754652,
              41.27240700539475
            ],
            [
              1.979234408672109,
              41.26790381408679
            ]
          ]
        ]
      },
      "properties": {
        "id": "r1_c7",
        "count": 14,
        "top_category": "Restauración",
        "categories": {
          "Comercio": 3,
          "Restauración": 7,
          "Alojamiento": 1,
          "Salud": 1,
          "Automoción y movilidad": 2
        },
        "cell_size_m": 500,
        "analytic_crs": "EPSG:25831",
        "category_breakdown": [
          {
            "category": "Restauración",
            "value": 7
          },
          {
            "category": "Comercio",
            "value": 3
          },
          {
            "category": "Automoción y movilidad",
            "value": 2
          },
          {
            "category": "Alojamiento",
            "value": 1
          },
          {
            "category": "Salud",
            "value": 1
          }
        ],
        "density_label": "14 registros OSM",
        "rank": 2
      }
    },
    {
      "type": "Feature",
      "geometry": {
        "type": "Polygon",
        "coordinates": [
          [
            [
              1.985202898366934,
              41.267956581643666
            ],
            [
              1.9911714038897752,
              41.26800903984625
            ],
            [
              1.9911020734030405,
              41.27251224772715
            ],
            [
              1.9851331578731857,
              41.27245978126245
            ],
            [
              1.985202898366934,
              41.267956581643666
            ]
          ]
        ]
      },
      "properties": {
        "id": "r1_c8",
        "count": 5,
        "top_category": "Educación",
        "categories": {
          "Restauración": 1,
          "Alojamiento": 1,
          "Educación": 3
        },
        "cell_size_m": 500,
        "analytic_crs": "EPSG:25831",
        "category_breakdown": [
          {
            "category": "Educación",
            "value": 3
          },
          {
            "category": "Restauración",
            "value": 1
          },
          {
            "category": "Alojamiento",
            "value": 1
          }
        ],
        "density_label": "5 registros OSM",
        "rank": 1
      }
    },
    {
      "type": "Feature",
      "geometry": {
        "type": "Polygon",
        "coordinates": [
          [
            [
              1.9911714038897752,
              41.26800903984625
            ],
            [
              1.9971399251476176,
              41.26806118869219
            ],
            [
              1.997071004671977,
              41.272564404786515
            ],
            [
              1.9911020734030405,
              41.27251224772715
            ],
            [
              1.9911714038897752,
              41.26800903984625
            ]
          ]
        ]
      },
      "properties": {
        "id": "r1_c9",
        "count": 0,
        "top_category": null,
        "categories": {},
        "cell_size_m": 500,
        "analytic_crs": "EPSG:25831",
        "category_breakdown": [],
        "density_label": "Sin registros OSM",
        "rank": 0
      }
    },
    {
      "type": "Feature",
      "geometry": {
        "type": "Polygon",
        "coordinates": [
          [
            [
              1.9373824114063858,
              41.272028911236376
            ],
            [
              1.9433511976741196,
              41.272083852858344
            ],
            [
              1.9432785707645002,
              41.27658698963921
            ],
            [
              1.9373093744303218,
              41.27653203936429
            ],
            [
              1.9373824114063858,
              41.272028911236376
            ]
          ]
        ]
      },
      "properties": {
        "id": "r2_c0",
        "count": 0,
        "top_category": null,
        "categories": {},
        "cell_size_m": 500,
        "analytic_crs": "EPSG:25831",
        "category_breakdown": [],
        "density_label": "Sin registros OSM",
        "rank": 0
      }
    },
    {
      "type": "Feature",
      "geometry": {
        "type": "Polygon",
        "coordinates": [
          [
            [
              1.9433511976741196,
              41.272083852858344
            ],
            [
              1.9493200004252373,
              41.272138485094096
            ],
            [
              1.949247783586343,
              41.27664163047921
            ],
            [
              1.9432785707645002,
              41.27658698963921
            ],
            [
              1.9433511976741196,
              41.272083852858344
            ]
          ]
        ]
      },
      "properties": {
        "id": "r2_c1",
        "count": 0,
        "top_category": null,
        "categories": {},
        "cell_size_m": 500,
        "analytic_crs": "EPSG:25831",
        "category_breakdown": [],
        "density_label": "Sin registros OSM",
        "rank": 0
      }
    },
    {
      "type": "Feature",
      "geometry": {
        "type": "Polygon",
        "coordinates": [
          [
            [
              1.9493200004252373,
              41.272138485094096
            ],
            [
              1.9552888195667204,
              41.27219280794121
            ],
            [
              1.9552170128028081,
              41.276695961881835
            ],
            [
              1.949247783586343,
              41.27664163047921
            ],
            [
              1.9493200004252373,
              41.272138485094096
            ]
          ]
        ]
      },
      "properties": {
        "id": "r2_c2",
        "count": 0,
        "top_category": null,
        "categories": {},
        "cell_size_m": 500,
        "analytic_crs": "EPSG:25831",
        "category_breakdown": [],
        "density_label": "Sin registros OSM",
        "rank": 0
      }
    },
    {
      "type": "Feature",
      "geometry": {
        "type": "Polygon",
        "coordinates": [
          [
            [
              1.9552888195667204,
              41.27219280794121
            ],
            [
              1.9612576550055068,
              41.27224682139721
            ],
            [
              1.9611862583208293,
              41.27674998384469
            ],
            [
              1.9552170128028081,
              41.276695961881835
            ],
            [
              1.9552888195667204,
              41.27219280794121
            ]
          ]
        ]
      },
      "properties": {
        "id": "r2_c3",
        "count": 0,
        "top_category": null,
        "categories": {},
        "cell_size_m": 500,
        "analytic_crs": "EPSG:25831",
        "category_breakdown": [],
        "density_label": "Sin registros OSM",
        "rank": 0
      }
    },
    {
      "type": "Feature",
      "geometry": {
        "type": "Polygon",
        "coordinates": [
          [
            [
              1.9612576550055068,
              41.27224682139721
            ],
            [
              1.9672265066485919,
              41.27230052545975
            ],
            [
              1.9671555200473605,
              41.27680369636532
            ],
            [
              1.9611862583208293,
              41.27674998384469
            ],
            [
              1.9612576550055068,
              41.27224682139721
            ]
          ]
        ]
      },
      "properties": {
        "id": "r2_c4",
        "count": 1,
        "top_category": "Educación",
        "categories": {
          "Educación": 1
        },
        "cell_size_m": 500,
        "analytic_crs": "EPSG:25831",
        "category_breakdown": [
          {
            "category": "Educación",
            "value": 1
          }
        ],
        "density_label": "1 registro OSM",
        "rank": 1
      }
    },
    {
      "type": "Feature",
      "geometry": {
        "type": "Polygon",
        "coordinates": [
          [
            [
              1.9672265066485919,
              41.27230052545975
            ],
            [
              1.973195374402922,
              41.272353920126385
            ],
            [
              1.9731247978893212,
              41.27685709944134
            ],
            [
              1.9671555200473605,
              41.27680369636532
            ],
            [
              1.9672265066485919,
              41.27230052545975
            ]
          ]
        ]
      },
      "properties": {
        "id": "r2_c5",
        "count": 1,
        "top_category": "Restauración",
        "categories": {
          "Restauración": 1
        },
        "cell_size_m": 500,
        "analytic_crs": "EPSG:25831",
        "category_breakdown": [
          {
            "category": "Restauración",
            "value": 1
          }
        ],
        "density_label": "1 registro OSM",
        "rank": 1
      }
    },
    {
      "type": "Feature",
      "geometry": {
        "type": "Polygon",
        "coordinates": [
          [
            [
              1.973195374402922,
              41.272353920126385
            ],
            [
              1.9791642581754652,
              41.27240700539475
            ],
            [
              1.9790940917536584,
              41.27691019307037
            ],
            [
              1.9731247978893212,
              41.27685709944134
            ],
            [
              1.973195374402922,
              41.272353920126385
            ]
          ]
        ]
      },
      "properties": {
        "id": "r2_c6",
        "count": 7,
        "top_category": "Restauración",
        "categories": {
          "Comercio": 1,
          "Restauración": 2,
          "Salud": 2,
          "Educación": 1,
          "Automoción y movilidad": 1
        },
        "cell_size_m": 500,
        "analytic_crs": "EPSG:25831",
        "category_breakdown": [
          {
            "category": "Restauración",
            "value": 2
          },
          {
            "category": "Salud",
            "value": 2
          },
          {
            "category": "Comercio",
            "value": 1
          },
          {
            "category": "Educación",
            "value": 1
          },
          {
            "category": "Automoción y movilidad",
            "value": 1
          }
        ],
        "density_label": "7 registros OSM",
        "rank": 1
      }
    },
    {
      "type": "Feature",
      "geometry": {
        "type": "Polygon",
        "coordinates": [
          [
            [
              1.9791642581754652,
              41.27240700539475
            ],
            [
              1.9851331578731857,
              41.27245978126245
            ],
            [
              1.9850634015473034,
              41.276962977250044
            ],
            [
              1.9790940917536584,
              41.27691019307037
            ],
            [
              1.9791642581754652,
              41.27240700539475
            ]
          ]
        ]
      },
      "properties": {
        "id": "r2_c7",
        "count": 1,
        "top_category": "Restauración",
        "categories": {
          "Restauración": 1
        },
        "cell_size_m": 500,
        "analytic_crs": "EPSG:25831",
        "category_breakdown": [
          {
            "category": "Restauración",
            "value": 1
          }
        ],
        "density_label": "1 registro OSM",
        "rank": 1
      }
    },
    {
      "type": "Feature",
      "geometry": {
        "type": "Polygon",
        "coordinates": [
          [
            [
              1.9851331578731857,
              41.27245978126245
            ],
            [
              1.9911020734030405,
              41.27251224772715
            ],
            [
              1.9910327271772141,
              41.277015451977995
            ],
            [
              1.9850634015473034,
              41.276962977250044
            ],
            [
              1.9851331578731857,
              41.27245978126245
            ]
          ]
        ]
      },
      "properties": {
        "id": "r2_c8",
        "count": 7,
        "top_category": "Oficinas",
        "categories": {
          "Restauración": 2,
          "Alojamiento": 1,
          "Oficinas": 4
        },
        "cell_size_m": 500,
        "analytic_crs": "EPSG:25831",
        "category_breakdown": [
          {
            "category": "Oficinas",
            "value": 4
          },
          {
            "category": "Restauración",
            "value": 2
          },
          {
            "category": "Alojamiento",
            "value": 1
          }
        ],
        "density_label": "7 registros OSM",
        "rank": 1
      }
    },
    {
      "type": "Feature",
      "geometry": {
        "type": "Polygon",
        "coordinates": [
          [
            [
              1.9911020734030405,
              41.27251224772715
            ],
            [
              1.997071004671977,
              41.272564404786515
            ],
            [
              1.99700206855029,
              41.27706761725186
            ],
            [
              1.9910327271772141,
              41.277015451977995
            ],
            [
              1.9911020734030405,
              41.27251224772715
            ]
          ]
        ]
      },
      "properties": {
        "id": "r2_c9",
        "count": 0,
        "top_category": null,
        "categories": {},
        "cell_size_m": 500,
        "analytic_crs": "EPSG:25831",
        "category_breakdown": [],
        "density_label": "Sin registros OSM",
        "rank": 0
      }
    },
    {
      "type": "Feature",
      "geometry": {
        "type": "Polygon",
        "coordinates": [
          [
            [
              1.9432785707645002,
              41.27658698963921
            ],
            [
              1.949247783586343,
              41.27664163047921
            ],
            [
              1.9491755503528365,
              41.28114477222617
            ],
            [
              1.943205927367208,
              41.28109012278076
            ],
            [
              1.9432785707645002,
              41.27658698963921
            ]
          ]
        ]
      },
      "properties": {
        "id": "r3_c1",
        "count": 0,
        "top_category": null,
        "categories": {},
        "cell_size_m": 500,
        "analytic_crs": "EPSG:25831",
        "category_breakdown": [],
        "density_label": "Sin registros OSM",
        "rank": 0
      }
    },
    {
      "type": "Feature",
      "geometry": {
        "type": "Polygon",
        "coordinates": [
          [
            [
              1.949247783586343,
              41.27664163047921
            ],
            [
              1.9552170128028081,
              41.276695961881835
            ],
            [
              1.9551451897373453,
              41.2811991121855
            ],
            [
              1.9491755503528365,
              41.28114477222617
            ],
            [
              1.949247783586343,
              41.27664163047921
            ]
          ]
        ]
      },
      "properties": {
        "id": "r3_c2",
        "count": 0,
        "top_category": null,
        "categories": {},
        "cell_size_m": 500,
        "analytic_crs": "EPSG:25831",
        "category_breakdown": [],
        "density_label": "Sin registros OSM",
        "rank": 0
      }
    },
    {
      "type": "Feature",
      "geometry": {
        "type": "Polygon",
        "coordinates": [
          [
            [
              1.9552170128028081,
              41.276695961881835
            ],
            [
              1.9611862583208293,
              41.27674998384469
            ],
            [
              1.9611148454276564,
              41.281253142656325
            ],
            [
              1.9551451897373453,
              41.2811991121855
            ],
            [
              1.9552170128028081,
              41.276695961881835
            ]
          ]
        ]
      },
      "properties": {
        "id": "r3_c3",
        "count": 0,
        "top_category": null,
        "categories": {},
        "cell_size_m": 500,
        "analytic_crs": "EPSG:25831",
        "category_breakdown": [],
        "density_label": "Sin registros OSM",
        "rank": 0
      }
    },
    {
      "type": "Feature",
      "geometry": {
        "type": "Polygon",
        "coordinates": [
          [
            [
              1.9611862583208293,
              41.27674998384469
            ],
            [
              1.9671555200473605,
              41.27680369636532
            ],
            [
              1.9670845173306746,
              41.28130686363621
            ],
            [
              1.9611148454276564,
              41.281253142656325
            ],
            [
              1.9611862583208293,
              41.27674998384469
            ]
          ]
        ]
      },
      "properties": {
        "id": "r3_c4",
        "count": 0,
        "top_category": null,
        "categories": {},
        "cell_size_m": 500,
        "analytic_crs": "EPSG:25831",
        "category_breakdown": [],
        "density_label": "Sin registros OSM",
        "rank": 0
      }
    },
    {
      "type": "Feature",
      "geometry": {
        "type": "Polygon",
        "coordinates": [
          [
            [
              1.9671555200473605,
              41.27680369636532
            ],
            [
              1.9731247978893212,
              41.27685709944134
            ],
            [
              1.9730542053533238,
              41.281360275122765
            ],
            [
              1.9670845173306746,
              41.28130686363621
            ],
            [
              1.9671555200473605,
              41.27680369636532
            ]
          ]
        ]
      },
      "properties": {
        "id": "r3_c5",
        "count": 3,
        "top_category": "Alojamiento",
        "categories": {
          "Alojamiento": 1,
          "Salud": 1,
          "Educación": 1
        },
        "cell_size_m": 500,
        "analytic_crs": "EPSG:25831",
        "category_breakdown": [
          {
            "category": "Alojamiento",
            "value": 1
          },
          {
            "category": "Salud",
            "value": 1
          },
          {
            "category": "Educación",
            "value": 1
          }
        ],
        "density_label": "3 registros OSM",
        "rank": 1
      }
    },
    {
      "type": "Feature",
      "geometry": {
        "type": "Polygon",
        "coordinates": [
          [
            [
              1.9731247978893212,
              41.27685709944134
            ],
            [
              1.9790940917536584,
              41.27691019307037
            ],
            [
              1.979023909402519,
              41.28141337711361
            ],
            [
              1.9730542053533238,
              41.281360275122765
            ],
            [
              1.9731247978893212,
              41.27685709944134
            ]
          ]
        ]
      },
      "properties": {
        "id": "r3_c6",
        "count": 66,
        "top_category": "Restauración",
        "categories": {
          "Comercio": 23,
          "Restauración": 30,
          "Alojamiento": 2,
          "Servicios financieros": 7,
          "Salud": 4
        },
        "cell_size_m": 500,
        "analytic_crs": "EPSG:25831",
        "category_breakdown": [
          {
            "category": "Restauración",
            "value": 30
          },
          {
            "category": "Comercio",
            "value": 23
          },
          {
            "category": "Servicios financieros",
            "value": 7
          },
          {
            "category": "Salud",
            "value": 4
          },
          {
            "category": "Alojamiento",
            "value": 2
          }
        ],
        "density_label": "66 registros OSM",
        "rank": 5
      }
    },
    {
      "type": "Feature",
      "geometry": {
        "type": "Polygon",
        "coordinates": [
          [
            [
              1.9790940917536584,
              41.27691019307037
            ],
            [
              1.9850634015473034,
              41.276962977250044
            ],
            [
              1.9849936293851762,
              41.28146616960636
            ],
            [
              1.979023909402519,
              41.28141337711361
            ],
            [
              1.9790940917536584,
              41.27691019307037
            ]
          ]
        ]
      },
      "properties": {
        "id": "r3_c7",
        "count": 15,
        "top_category": "Comercio",
        "categories": {
          "Comercio": 4,
          "Restauración": 4,
          "Educación": 1,
          "Automoción y movilidad": 3,
          "Ocio": 1,
          "Oficinas": 2
        },
        "cell_size_m": 500,
        "analytic_crs": "EPSG:25831",
        "category_breakdown": [
          {
            "category": "Comercio",
            "value": 4
          },
          {
            "category": "Restauración",
            "value": 4
          },
          {
            "category": "Automoción y movilidad",
            "value": 3
          },
          {
            "category": "Oficinas",
            "value": 2
          },
          {
            "category": "Educación",
            "value": 1
          },
          {
            "category": "Ocio",
            "value": 1
          }
        ],
        "density_label": "15 registros OSM",
        "rank": 2
      }
    },
    {
      "type": "Feature",
      "geometry": {
        "type": "Polygon",
        "coordinates": [
          [
            [
              1.9850634015473034,
              41.276962977250044
            ],
            [
              1.9910327271772141,
              41.277015451977995
            ],
            [
              1.990963365208198,
              41.28151865259868
            ],
            [
              1.9849936293851762,
              41.28146616960636
            ],
            [
              1.9850634015473034,
              41.276962977250044
            ]
          ]
        ]
      },
      "properties": {
        "id": "r3_c8",
        "count": 8,
        "top_category": "Comercio",
        "categories": {
          "Comercio": 4,
          "Alojamiento": 2,
          "Automoción y movilidad": 1,
          "Oficinas": 1
        },
        "cell_size_m": 500,
        "analytic_crs": "EPSG:25831",
        "category_breakdown": [
          {
            "category": "Comercio",
            "value": 4
          },
          {
            "category": "Alojamiento",
            "value": 2
          },
          {
            "category": "Automoción y movilidad",
            "value": 1
          },
          {
            "category": "Oficinas",
            "value": 1
          }
        ],
        "density_label": "8 registros OSM",
        "rank": 1
      }
    },
    {
      "type": "Feature",
      "geometry": {
        "type": "Polygon",
        "coordinates": [
          [
            [
              1.9910327271772141,
              41.277015451977995
            ],
            [
              1.99700206855029,
              41.27706761725186
            ],
            [
              1.9969331167784823,
              41.28157082608819
            ],
            [
              1.990963365208198,
              41.28151865259868
            ],
            [
              1.9910327271772141,
              41.277015451977995
            ]
          ]
        ]
      },
      "properties": {
        "id": "r3_c9",
        "count": 0,
        "top_category": null,
        "categories": {},
        "cell_size_m": 500,
        "analytic_crs": "EPSG:25831",
        "category_breakdown": [],
        "density_label": "Sin registros OSM",
        "rank": 0
      }
    },
    {
      "type": "Feature",
      "geometry": {
        "type": "Polygon",
        "coordinates": [
          [
            [
              1.9491755503528365,
              41.28114477222617
            ],
            [
              1.9551451897373453,
              41.2811991121855
            ],
            [
              1.9550733503660824,
              41.28570225885206
            ],
            [
              1.9491033007204563,
              41.28564791033488
            ],
            [
              1.9491755503528365,
              41.28114477222617
            ]
          ]
        ]
      },
      "properties": {
        "id": "r4_c2",
        "count": 0,
        "top_category": null,
        "categories": {},
        "cell_size_m": 500,
        "analytic_crs": "EPSG:25831",
        "category_breakdown": [],
        "density_label": "Sin registros OSM",
        "rank": 0
      }
    },
    {
      "type": "Feature",
      "geometry": {
        "type": "Polygon",
        "coordinates": [
          [
            [
              1.9551451897373453,
              41.2811991121855
            ],
            [
              1.9611148454276564,
              41.281253142656325
            ],
            [
              1.961043416321759,
              41.28575629783201
            ],
            [
              1.9550733503660824,
              41.28570225885206
            ],
            [
              1.9551451897373453,
              41.2811991121855
            ]
          ]
        ]
      },
      "properties": {
        "id": "r4_c3",
        "count": 0,
        "top_category": null,
        "categories": {},
        "cell_size_m": 500,
        "analytic_crs": "EPSG:25831",
        "category_breakdown": [],
        "density_label": "Sin registros OSM",
        "rank": 0
      }
    },
    {
      "type": "Feature",
      "geometry": {
        "type": "Polygon",
        "coordinates": [
          [
            [
              1.9611148454276564,
              41.281253142656325
            ],
            [
              1.9670845173306746,
              41.28130686363621
            ],
            [
              1.9670134984943706,
              41.2858100272723
            ],
            [
              1.961043416321759,
              41.28575629783201
            ],
            [
              1.9611148454276564,
              41.281253142656325
            ]
          ]
        ]
      },
      "properties": {
        "id": "r4_c4",
        "count": 0,
        "top_category": null,
        "categories": {},
        "cell_size_m": 500,
        "analytic_crs": "EPSG:25831",
        "category_breakdown": [],
        "density_label": "Sin registros OSM",
        "rank": 0
      }
    },
    {
      "type": "Feature",
      "geometry": {
        "type": "Polygon",
        "coordinates": [
          [
            [
              1.9670845173306746,
              41.28130686363621
            ],
            [
              1.9730542053533238,
              41.281360275122765
            ],
            [
              1.9729835967907958,
              41.285863447170534
            ],
            [
              1.9670134984943706,
              41.2858100272723
            ],
            [
              1.9670845173306746,
              41.28130686363621
            ]
          ]
        ]
      },
      "properties": {
        "id": "r4_c5",
        "count": 2,
        "top_category": "Educación",
        "categories": {
          "Educación": 2
        },
        "cell_size_m": 500,
        "analytic_crs": "EPSG:25831",
        "category_breakdown": [
          {
            "category": "Educación",
            "value": 2
          }
        ],
        "density_label": "2 registros OSM",
        "rank": 1
      }
    },
    {
      "type": "Feature",
      "geometry": {
        "type": "Polygon",
        "coordinates": [
          [
            [
              1.9730542053533238,
              41.281360275122765
            ],
            [
              1.979023909402519,
              41.28141337711361
            ],
            [
              1.978953711117938,
              41.28591655752433
            ],
            [
              1.9729835967907958,
              41.285863447170534
            ],
            [
              1.9730542053533238,
              41.281360275122765
            ]
          ]
        ]
      },
      "properties": {
        "id": "r4_c6",
        "count": 8,
        "top_category": "Comercio",
        "categories": {
          "Comercio": 4,
          "Restauración": 2,
          "Salud": 1,
          "Educación": 1
        },
        "cell_size_m": 500,
        "analytic_crs": "EPSG:25831",
        "category_breakdown": [
          {
            "category": "Comercio",
            "value": 4
          },
          {
            "category": "Restauración",
            "value": 2
          },
          {
            "category": "Salud",
            "value": 1
          },
          {
            "category": "Educación",
            "value": 1
          }
        ],
        "density_label": "8 registros OSM",
        "rank": 1
      }
    },
    {
      "type": "Feature",
      "geometry": {
        "type": "Polygon",
        "coordinates": [
          [
            [
              1.979023909402519,
              41.28141337711361
            ],
            [
              1.9849936293851762,
              41.28146616960636
            ],
            [
              1.9849238413826757,
              41.28596935833131
            ],
            [
              1.978953711117938,
              41.28591655752433
            ],
            [
              1.979023909402519,
              41.28141337711361
            ]
          ]
        ]
      },
      "properties": {
        "id": "r4_c7",
        "count": 10,
        "top_category": "Restauración",
        "categories": {
          "Comercio": 2,
          "Restauración": 4,
          "Salud": 3,
          "Otros servicios": 1
        },
        "cell_size_m": 500,
        "analytic_crs": "EPSG:25831",
        "category_breakdown": [
          {
            "category": "Restauración",
            "value": 4
          },
          {
            "category": "Salud",
            "value": 3
          },
          {
            "category": "Comercio",
            "value": 2
          },
          {
            "category": "Otros servicios",
            "value": 1
          }
        ],
        "density_label": "10 registros OSM",
        "rank": 1
      }
    },
    {
      "type": "Feature",
      "geometry": {
        "type": "Polygon",
        "coordinates": [
          [
            [
              1.9849936293851762,
              41.28146616960636
            ],
            [
              1.990963365208198,
              41.28151865259868
            ],
            [
              1.990893987491909,
              41.286021849589105
            ],
            [
              1.9849238413826757,
              41.28596935833131
            ],
            [
              1.9849936293851762,
              41.28146616960636
            ]
          ]
        ]
      },
      "properties": {
        "id": "r4_c8",
        "count": 24,
        "top_category": "Comercio",
        "categories": {
          "Comercio": 12,
          "Restauración": 4,
          "Alojamiento": 2,
          "Salud": 2,
          "Automoción y movilidad": 2,
          "Ocio": 2
        },
        "cell_size_m": 500,
        "analytic_crs": "EPSG:25831",
        "category_breakdown": [
          {
            "category": "Comercio",
            "value": 12
          },
          {
            "category": "Restauración",
            "value": 4
          },
          {
            "category": "Alojamiento",
            "value": 2
          },
          {
            "category": "Salud",
            "value": 2
          },
          {
            "category": "Automoción y movilidad",
            "value": 2
          },
          {
            "category": "Ocio",
            "value": 2
          }
        ],
        "density_label": "24 registros OSM",
        "rank": 2
      }
    },
    {
      "type": "Feature",
      "geometry": {
        "type": "Polygon",
        "coordinates": [
          [
            [
              1.961043416321759,
              41.28575629783201
            ],
            [
              1.9670134984943706,
              41.2858100272723
            ],
            [
              1.9669424635342503,
              41.29031318727352
            ],
            [
              1.96097197099894,
              41.29025944937166
            ],
            [
              1.961043416321759,
              41.28575629783201
            ]
          ]
        ]
      },
      "properties": {
        "id": "r5_c4",
        "count": 0,
        "top_category": null,
        "categories": {},
        "cell_size_m": 500,
        "analytic_crs": "EPSG:25831",
        "category_breakdown": [],
        "density_label": "Sin registros OSM",
        "rank": 0
      }
    },
    {
      "type": "Feature",
      "geometry": {
        "type": "Polygon",
        "coordinates": [
          [
            [
              1.9670134984943706,
              41.2858100272723
            ],
            [
              1.9729835967907958,
              41.285863447170534
            ],
            [
              1.9729129721975625,
              41.290366615584574
            ],
            [
              1.9669424635342503,
              41.29031318727352
            ],
            [
              1.9670134984943706,
              41.2858100272723
            ]
          ]
        ]
      },
      "properties": {
        "id": "r5_c5",
        "count": 0,
        "top_category": null,
        "categories": {},
        "cell_size_m": 500,
        "analytic_crs": "EPSG:25831",
        "category_breakdown": [],
        "density_label": "Sin registros OSM",
        "rank": 0
      }
    },
    {
      "type": "Feature",
      "geometry": {
        "type": "Polygon",
        "coordinates": [
          [
            [
              1.9729835967907958,
              41.285863447170534
            ],
            [
              1.978953711117938,
              41.28591655752433
            ],
            [
              1.978883496895751,
              41.290419734302446
            ],
            [
              1.9729129721975625,
              41.290366615584574
            ],
            [
              1.9729835967907958,
              41.285863447170534
            ]
          ]
        ]
      },
      "properties": {
        "id": "r5_c6",
        "count": 4,
        "top_category": "Comercio",
        "categories": {
          "Comercio": 2,
          "Restauración": 1,
          "Educación": 1
        },
        "cell_size_m": 500,
        "analytic_crs": "EPSG:25831",
        "category_breakdown": [
          {
            "category": "Comercio",
            "value": 2
          },
          {
            "category": "Restauración",
            "value": 1
          },
          {
            "category": "Educación",
            "value": 1
          }
        ],
        "density_label": "4 registros OSM",
        "rank": 1
      }
    },
    {
      "type": "Feature",
      "geometry": {
        "type": "Polygon",
        "coordinates": [
          [
            [
              1.978953711117938,
              41.28591655752433
            ],
            [
              1.9849238413826757,
              41.28596935833131
            ],
            [
              1.9848540375356967,
              41.29047254342477
            ],
            [
              1.978883496895751,
              41.290419734302446
            ],
            [
              1.978953711117938,
              41.28591655752433
            ]
          ]
        ]
      },
      "properties": {
        "id": "r5_c7",
        "count": 10,
        "top_category": "Comercio",
        "categories": {
          "Comercio": 3,
          "Restauración": 3,
          "Salud": 2,
          "Educación": 1,
          "Otros servicios": 1
        },
        "cell_size_m": 500,
        "analytic_crs": "EPSG:25831",
        "category_breakdown": [
          {
            "category": "Comercio",
            "value": 3
          },
          {
            "category": "Restauración",
            "value": 3
          },
          {
            "category": "Salud",
            "value": 2
          },
          {
            "category": "Educación",
            "value": 1
          },
          {
            "category": "Otros servicios",
            "value": 1
          }
        ],
        "density_label": "10 registros OSM",
        "rank": 1
      }
    },
    {
      "type": "Feature",
      "geometry": {
        "type": "Polygon",
        "coordinates": [
          [
            [
              1.9849238413826757,
              41.28596935833131
            ],
            [
              1.990893987491909,
              41.286021849589105
            ],
            [
              1.9908245940242495,
              41.29052504294919
            ],
            [
              1.9848540375356967,
              41.29047254342477
            ],
            [
              1.9849238413826757,
              41.28596935833131
            ]
          ]
        ]
      },
      "properties": {
        "id": "r5_c8",
        "count": 7,
        "top_category": "Restauración",
        "categories": {
          "Comercio": 2,
          "Restauración": 4,
          "Automoción y movilidad": 1
        },
        "cell_size_m": 500,
        "analytic_crs": "EPSG:25831",
        "category_breakdown": [
          {
            "category": "Restauración",
            "value": 4
          },
          {
            "category": "Comercio",
            "value": 2
          },
          {
            "category": "Automoción y movilidad",
            "value": 1
          }
        ],
        "density_label": "7 registros OSM",
        "rank": 1
      }
    },
    {
      "type": "Feature",
      "geometry": {
        "type": "Polygon",
        "coordinates": [
          [
            [
              1.9669424635342503,
              41.29031318727352
            ],
            [
              1.9729129721975625,
              41.290366615584574
            ],
            [
              1.9728423315694432,
              41.29486978036477
            ],
            [
              1.9668714124460955,
              41.29481634363975
            ],
            [
              1.9669424635342503,
              41.29031318727352
            ]
          ]
        ]
      },
      "properties": {
        "id": "r6_c5",
        "count": 0,
        "top_category": null,
        "categories": {},
        "cell_size_m": 500,
        "analytic_crs": "EPSG:25831",
        "category_breakdown": [],
        "density_label": "Sin registros OSM",
        "rank": 0
      }
    },
    {
      "type": "Feature",
      "geometry": {
        "type": "Polygon",
        "coordinates": [
          [
            [
              1.9729129721975625,
              41.290366615584574
            ],
            [
              1.978883496895751,
              41.290419734302446
            ],
            [
              1.9788132667318241,
              41.29492290744786
            ],
            [
              1.9728423315694432,
              41.29486978036477
            ],
            [
              1.9729129721975625,
              41.290366615584574
            ]
          ]
        ]
      },
      "properties": {
        "id": "r6_c6",
        "count": 0,
        "top_category": null,
        "categories": {},
        "cell_size_m": 500,
        "analytic_crs": "EPSG:25831",
        "category_breakdown": [],
        "density_label": "Sin registros OSM",
        "rank": 0
      }
    },
    {
      "type": "Feature",
      "geometry": {
        "type": "Polygon",
        "coordinates": [
          [
            [
              1.978883496895751,
              41.290419734302446
            ],
            [
              1.9848540375356967,
              41.29047254342477
            ],
            [
              1.9847842178401118,
              41.29497572488667
            ],
            [
              1.9788132667318241,
              41.29492290744786
            ],
            [
              1.978883496895751,
              41.290419734302446
            ]
          ]
        ]
      },
      "properties": {
        "id": "r6_c7",
        "count": 0,
        "top_category": null,
        "categories": {},
        "cell_size_m": 500,
        "analytic_crs": "EPSG:25831",
        "category_breakdown": [],
        "density_label": "Sin registros OSM",
        "rank": 0
      }
    },
    {
      "type": "Feature",
      "geometry": {
        "type": "Polygon",
        "coordinates": [
          [
            [
              1.9971399251476176,
              41.26806118869219
            ],
            [
              2.003108462047443,
              41.26811302817916
            ],
            [
              2.0030399515869655,
              41.27261625243817
            ],
            [
              1.997071004671977,
              41.272564404786515
            ],
            [
              1.9971399251476176,
              41.26806118869219
            ]
          ]
        ]
      },
      "properties": {
        "id": "r1_c10",
        "count": 1,
        "top_category": "Servicios financieros",
        "categories": {
          "Servicios financieros": 1
        },
        "cell_size_m": 500,
        "analytic_crs": "EPSG:25831",
        "category_breakdown": [
          {
            "category": "Servicios financieros",
            "value": 1
          }
        ],
        "density_label": "1 registro OSM",
        "rank": 1
      }
    }
  ]
}
